NORAD_CAT_ID,OBJECT_NAME,OBJECT_TYPE,EPOCH,MEAN_MOTION,ECCENTRICITY,INCLINATION,RA_OF_ASC_NODE,ARG_OF_PERICENTER,MEAN_ANOMALY,BSTAR,MEAN_MOTION_DOT,MEAN_MOTION_DDOT,TLE_LINE0,TLE_LINE1,TLE_LINE2,SEMIMAJOR_AXIS,PERIOD,APOGEE,PERIGEE,DECAYED
50850.0,STARLINK-3312,PAYLOAD,2022-06-22 16:00:00,15.08825734,0.0001591,53.2122,106.5418,50.3468,281.6844,0.002336,0.00037071,0.0,0 STARLINK-3312,1 50850U 22001AZ  22173.66667824  .00037071  00000-0  23360-2 0  9997,2 50850  53.2122 106.5418 0001591  50.3468 281.6844 15.08825734 27399,6917.924,95.438,540.89,538.688,0.0
50850.0,STARLINK-3312,PAYLOAD,2022-06-22 22:00:00,15.08864128,0.0001714,53.2124,105.42,52.5993,198.1219,-0.0030227,-0.00048106,0.0,0 STARLINK-3312,1 50850U 22001AZ  22173.91667824 -.00048106  00000-0 -30227-2 0  9998,2 50850  53.2124 105.4200 0001714  52.5993 198.1219 15.08864128  1303,6917.807,95.436,540.857,538.486,0.0
50850.0,STARLINK-3312,PAYLOAD,2022-06-23 06:00:00,15.08810141,0.0001907,53.2124,103.9248,47.4642,214.8663,0.0035525,0.00056659,0.0,0 STARLINK-3312,1 50850U 22001AZ  22174.25001157  .00056659  00000-0  35525-2 0  9993,2 50850  53.2124 103.9248 0001907  47.4642 214.8663 15.08810141 27488,6917.972,95.439,541.156,538.5169999999998,0.0
50850.0,STARLINK-3312,PAYLOAD,2022-06-23 14:00:01,15.08838915,0.0001739,53.2127,102.4265,51.3397,222.5764,-1.0494000000000003e-05,-4.55e-06,0.0,0 STARLINK-3312,1 50850U 22001AZ  22174.58334491 -.00000455  00000-0 -10494-4 0  9994,2 50850  53.2127 102.4265 0001739  51.3397 222.5764 15.08838915  1308,6917.884,95.438,540.952,538.5459999999998,0.0
50850.0,STARLINK-3312,PAYLOAD,2022-06-23 22:00:00,15.08854642,0.0001626999999999,53.214,100.929,53.1065,232.412,-0.0012817,-0.00020637,0.0,0 STARLINK-3312,1 50850U 22001AZ  22174.91667824 -.00020637  00000-0 -12817-2 0  9993,2 50850  53.2140 100.9290 0001627  53.1065 232.4120 15.08854642 27581,6917.8359999999975,95.437,540.826,538.575,0.0
50850.0,STARLINK-3312,PAYLOAD,2022-06-24 14:00:01,15.08807424,0.0001524,53.2134,97.9369,48.9598,259.7566,0.0019143,0.00030282,0.0,0 STARLINK-3312,1 50850U 22001AZ  22175.58334491  .00030282  00000-0  19143-2 0  9992,2 50850  53.2134  97.9369 0001524  48.9598 259.7566 15.08807424  1309,6917.98,95.44,540.899,538.7909999999998,0.0
50850.0,STARLINK-3312,PAYLOAD,2022-06-24 22:00:01,15.08844225,0.0001601,53.2137,96.441,50.2268,270.1161,-0.0012291,-0.00019798,0.0,0 STARLINK-3312,1 50850U 22001AZ  22175.91668981 -.00019798  00000-0 -12291-2 0  9991,2 50850  53.2137  96.4410 0001601  50.2268 270.1161 15.08844225 27732,6917.8669999999975,95.437,540.84,538.625,0.0
50850.0,STARLINK-3312,PAYLOAD,2022-06-25 14:00:01,15.08809987,0.0001639,53.214,93.4475,53.3819,290.0921,0.0012852,0.00020208,0.0,0 STARLINK-3312,1 50850U 22001AZ  22176.58334491  .00020208  00000-0  12852-2 0  9990,2 50850  53.2140  93.4475 0001639  53.3819 290.0921 15.08809987  1307,6917.972,95.439,540.971,538.703,0.0
50850.0,STARLINK-3312,PAYLOAD,2022-06-25 22:00:00,15.08794311,0.0001714,53.2164,91.9487,51.5367,303.5416,-0.00064871,-0.00010585,0.0,0 STARLINK-3312,1 50850U 22001AZ  22176.91667824 -.00010585  00000-0 -64871-3 0  9994,2 50850  53.2164  91.9487 0001714  51.5367 303.5416 15.08794311 27885,6918.02,95.44,541.071,538.6990000000002,0.0
50850.0,STARLINK-3312,PAYLOAD,2022-06-26 08:00:01,15.08849672,0.0001807,53.214,90.0819,49.6892,49.8602,6.3297e-05,7.200000000000001e-06,0.0,0 STARLINK-3312,1 50850U 22001AZ  22177.33334491  .00000720  00000-0  63297-4 0  9992,2 50850  53.2140  90.0819 0001807  49.6892  49.8602 15.08849672 27947,6917.851,95.437,540.966,538.466,0.0
50850.0,STARLINK-3312,PAYLOAD,2022-06-26 14:00:01,15.08837503,0.0001605,53.2142,88.9582,55.6649,322.6592,0.0014333,0.00022595,0.0,0 STARLINK-3312,1 50850U 22001AZ  22177.58335648  .00022595  00000-0  14333-2 0  9993,2 50850  53.2142  88.9582 0001605  55.6649 322.6592 15.08837503  1307,6917.888000000001,95.438,540.863,538.643,0.0
50850.0,STARLINK-3312,PAYLOAD,2022-06-27 00:00:00,15.08840834,0.0001685,53.2143,87.0893,51.5348,71.2279,-0.00082826,-0.00013446,0.0,0 STARLINK-3312,1 50850U 22001AZ  22178.00001157 -.00013446  00000-0 -82826-3 0  9996,2 50850  53.2143  87.0893 0001685  51.5348  71.2279 15.08840834  1302,6917.878000000002,95.438,540.909,538.577,0.0
50850.0,STARLINK-3312,PAYLOAD,2022-06-27 06:00:00,15.0883617,0.000168,53.214,85.9673,46.7662,354.6885,-0.00078096,-0.00012694,0.0,0 STARLINK-3312,1 50850U 22001AZ  22178.25001157 -.00012694  00000-0 -78096-3 0  9991,2 50850  53.2140  85.9673 0001680  46.7662 354.6885 15.08836170 28085,6917.892,95.438,540.919,538.595,0.0
50850.0,STARLINK-3312,PAYLOAD,2022-06-27 14:00:01,15.08794346,0.0001456,53.2142,84.4692,53.9597,359.088,0.0030983,0.00049305,0.0,0 STARLINK-3312,1 50850U 22001AZ  22178.58334491  .00049305  00000-0  30983-2 0  9996,2 50850  53.2142  84.4692 0001456  53.9597 359.0880 15.08794346  1308,6918.02,95.44,540.8919999999998,538.878,0.0
50850.0,STARLINK-3312,PAYLOAD,2022-06-27 22:00:00,15.08840433,0.0001578,53.2143,82.9742,52.875,11.731,-0.0015469,-0.00024823,0.0,0 STARLINK-3312,1 50850U 22001AZ  22178.91667824 -.00024823  00000-0 -15469-2 0  9994,2 50850  53.2143  82.9742 0001578  52.8750  11.7310 15.08840433  1301,6917.879,95.438,540.836,538.6519999999998,0.0
50850.0,STARLINK-3312,PAYLOAD,2022-06-28 14:00:01,15.08808073,0.0001504,53.2138,79.9803,56.371,31.4019,0.002838,0.00045129,0.0,0 STARLINK-3312,1 50850U 22001AZ  22179.58334491  .00045129  00000-0  28380-2 0  9995,2 50850  53.2138  79.9803 0001504  56.3710  31.4019 15.08808073 28288,6917.978,95.44,540.883,538.803,0.0
50850.0,STARLINK-3312,PAYLOAD,2022-06-28 22:00:00,15.08848169,0.0001645,53.2138,78.4853,54.9632,44.3834,-0.0017340999999999,-0.00027787,0.0,0 STARLINK-3312,1 50850U 22001AZ  22179.91667824 -.00027787  00000-0 -17341-2 0  9998,2 50850  53.2138  78.4853 0001645  54.9632  44.3834 15.08848169  1302,6917.855,95.437,540.8580000000002,538.582,0.0
50850.0,STARLINK-3312,PAYLOAD,2022-06-29 06:00:00,15.08835654,0.0001713,53.2133,76.9893,50.2345,60.7046,0.00078743,0.00012265,0.0,0 STARLINK-3312,1 50850U 22001AZ  22180.25001157  .00012265  00000-0  78743-3 0  9995,2 50850  53.2133  76.9893 0001713  50.2345  60.7046 15.08835654 28389,6917.894,95.438,540.944,538.5740000000002,0.0
50850.0,STARLINK-3312,PAYLOAD,2022-06-29 14:00:01,15.08822154,0.0001575,53.2134,75.4911,58.2059,64.337,0.0027612,0.00043909,0.0,0 STARLINK-3312,1 50850U 22001AZ  22180.58334491  .00043909  00000-0  27612-2 0  9998,2 50850  53.2134  75.4911 0001575  58.2059  64.3370 15.08822154  1305,6917.935,95.439,540.89,538.71,0.0
50850.0,STARLINK-3312,PAYLOAD,2022-06-29 22:00:00,15.08858364,0.0001721999999999,53.2134,73.9961,55.9212,78.212,-0.0014596,-0.00023454,0.0,0 STARLINK-3312,1 50850U 22001AZ  22180.91667824 -.00023454  00000-0 -14596-2 0  9996,2 50850  53.2134  73.9961 0001722  55.9212  78.2120 15.08858364  1301,6917.824000000001,95.436,540.881,538.498,0.0
50850.0,STARLINK-3312,PAYLOAD,2022-06-30 14:00:01,15.08808282,0.0001569,53.2133,71.0016,56.9029,100.4493,0.0025775,0.00040936,0.0,0 STARLINK-3312,1 50850U 22001AZ  22181.58334491  .00040936  00000-0  25775-2 0  9994,2 50850  53.2133  71.0016 0001569  56.9029 100.4493 15.08808282  1301,6917.977,95.44,540.928,538.757,0.0
50850.0,STARLINK-3312,PAYLOAD,2022-06-30 22:00:00,15.08841022,0.0001734,53.2134,69.5066,54.4237,114.5035,-0.0012691,-0.0002043,0.0,0 STARLINK-3312,1 50850U 22001AZ  22181.91667824 -.00020430  00000-0 -12691-2 0  9992,2 50850  53.2134  69.5066 0001734  54.4237 114.5035 15.08841022  1304,6917.877,95.437,540.942,538.543,0.0
50850.0,STARLINK-3312,PAYLOAD,2022-07-01 06:00:00,15.08842774,0.0001778,53.2132,68.0102,51.2062,129.3063,-0.00030981,-5.216e-05,0.0,0 STARLINK-3312,1 50850U 22001AZ  22182.25001157 -.00005216  00000-0 -30981-3 0  9999,2 50850  53.2132  68.0102 0001778  51.2062 129.3063 15.08842774 28686,6917.871999999999,95.437,540.967,538.507,0.0
50850.0,STARLINK-3312,PAYLOAD,2022-07-01 14:00:01,15.08823652,0.0001663,53.2135,66.512,58.2312,133.8844,0.0025127,0.00039911,0.0,0 STARLINK-3312,1 50850U 22001AZ  22182.58334491  .00039911  00000-0  25127-2 0  9997,2 50850  53.2135  66.5120 0001663  58.2312 133.8844 15.08823652  1301,6917.93,95.439,540.946,538.645,0.0
50850.0,STARLINK-3312,PAYLOAD,2022-07-01 22:00:00,15.08859621,0.0001807,53.2136,65.0171,54.7411,148.9673,-0.0021823,-0.00034871,0.0,0 STARLINK-3312,1 50850U 22001AZ  22182.91667824 -.00034871  00000-0 -21823-2 0  9994,2 50850  53.2136  65.0171 0001807  54.7411 148.9673 15.08859621  1305,6917.82,95.436,540.935,538.435,0.0
50850.0,STARLINK-3312,PAYLOAD,2022-07-02 14:00:01,15.08814401,0.0001633,53.2138,62.0223,57.8927,169.0151,0.0025588,0.00040642,0.0,0 STARLINK-3312,1 50850U 22001AZ  22183.58334491  .00040642  00000-0  25588-2 0  9992,2 50850  53.2138  62.0223 0001633  57.8927 169.0151 15.08814401  1307,6917.959,95.439,540.953,538.694,0.0
50850.0,STARLINK-3312,PAYLOAD,2022-07-02 22:00:00,15.08847553,0.000178,53.2139,60.5275,53.7092,184.7899,-0.00036937,-6.163e-05,0.0,0 STARLINK-3312,1 50850U 22001AZ  22183.91667824 -.00006163  00000-0 -36937-3 0  9991,2 50850  53.2139  60.5275 0001780  53.7092 184.7899 15.08847553  1306,6917.857,95.437,540.9540000000002,538.491,0.0
50850.0,STARLINK-3312,PAYLOAD,2022-07-03 14:00:01,15.08850704,0.0001561999999999,53.2141,57.5326,58.5455,203.1739,-0.00060851,-9.962e-05,0.0,0 STARLINK-3312,1 50850U 22001AZ  22184.58334491 -.00009962  00000-0 -60851-3 0  9998,2 50850  53.2141  57.5326 0001562  58.5455 203.1739 15.08850704 29048,6917.848000000001,95.437,540.793,538.632,0.0
50850.0,STARLINK-3312,PAYLOAD,2022-07-04 00:00:00,15.08804229,0.000167,53.2141,55.6639,50.0884,316.1326,0.00037179,5.628e-05,0.0,0 STARLINK-3312,1 50850U 22001AZ  22185.00001157  .00005628  00000-0  37179-3 0  9996,2 50850  53.2141  55.6639 0001670  50.0884 316.1326 15.08804229  1304,6917.99,95.44,541.01,538.6990000000002,0.0
